NORAD_CAT_ID,OBJECT_NAME,OBJECT_TYPE,EPOCH,MEAN_MOTION,ECCENTRICITY,INCLINATION,RA_OF_ASC_NODE,ARG_OF_PERICENTER,MEAN_ANOMALY,BSTAR,MEAN_MOTION_DOT,MEAN_MOTION_DDOT,TLE_LINE0,TLE_LINE1,TLE_LINE2,SEMIMAJOR_AXIS,PERIOD,APOGEE,PERIGEE,DECAYED
49441.0,STARLINK-3128,PAYLOAD,2022-04-29 22:00:00,15.08828282,0.0002028,53.2183,57.8266,38.8535,148.9808,-0.00067095,-0.00010947,0.0,0 STARLINK-3128,1 49441U 21104AK  22119.91667824 -.00010947  00000-0 -67095-3 0  9991,2 49441  53.2183  57.8266 0002028  38.8535 148.9808 15.08828282  3560,6917.916,95.438,541.184,538.378,0.0
49441.0,STARLINK-3128,PAYLOAD,2022-04-30 06:00:00,15.08808076,0.0002195,53.2182,56.3317,32.8886,166.5235,0.0014293,0.00022513,0.0,0 STARLINK-3128,1 49441U 21104AK  22120.25001157  .00022513  00000-0  14293-2 0  9992,2 49441  53.2182  56.3317 0002195  32.8886 166.5235 15.08808076 27226,6917.978,95.44,541.361,538.3240000000002,0.0
49441.0,STARLINK-3128,PAYLOAD,2022-04-30 14:00:01,15.08808265,0.0001988,53.2185,54.8338,33.8877,177.0996,0.0018998,0.00030051,0.0,0 STARLINK-3128,1 49441U 21104AK  22120.58334491  .00030051  00000-0  18998-2 0  9990,2 49441  53.2185  54.8338 0001988  33.8877 177.0996 15.08808265  3567,6917.977,95.44,541.2180000000002,538.467,0.0
49441.0,STARLINK-3128,PAYLOAD,2022-04-30 22:00:00,15.08854198,0.0001998,53.2187,53.3379,36.9859,185.5645,-0.00094914,-0.00015368,0.0,0 STARLINK-3128,1 49441U 21104AK  22120.91667824 -.00015368  00000-0 -94914-3 0  9995,2 49441  53.2187  53.3379 0001998  36.9859 185.5645 15.08854198  3610,6917.837,95.437,541.0840000000002,538.32,0.0
49441.0,STARLINK-3128,PAYLOAD,2022-05-01 06:00:00,15.08801337,0.0002226,53.2187,51.8431,31.7372,202.4155,0.0032454,0.00051688,0.0,0 STARLINK-3128,1 49441U 21104AK  22121.25001157  .00051688  00000-0  32454-2 0  9997,2 49441  53.2187  51.8431 0002226  31.7372 202.4155 15.08801337 27371,6917.999,95.44,541.404,538.3240000000002,0.0
49441.0,STARLINK-3128,PAYLOAD,2022-05-01 14:00:01,15.08832859,0.0002077,53.219,50.3451,36.0983,209.6289,-0.002461,-0.00039235,0.0,0 STARLINK-3128,1 49441U 21104AK  22121.58334491 -.00039235  00000-0 -24610-2 0  9994,2 49441  53.2190  50.3451 0002077  36.0983 209.6289 15.08832859  3588,6917.901999999999,95.438,541.2040000000002,538.33,0.0
49441.0,STARLINK-3128,PAYLOAD,2022-05-01 22:00:01,15.08810101,0.0002224,53.2192,48.8494,40.6658,216.6904,-0.0010807,-0.00017433,0.0,0 STARLINK-3128,1 49441U 21104AK  22121.91668981 -.00017433  00000-0 -10807-2 0  9994,2 49441  53.2192  48.8494 0002224  40.6658 216.6904 15.08810101 27475,6917.972,95.439,541.375,538.298,0.0
49441.0,STARLINK-3128,PAYLOAD,2022-05-02 14:00:01,15.08800997,0.0002225,53.2195,45.8567,41.2095,239.1946,0.0023886,0.00037891,0.0,0 STARLINK-3128,1 49441U 21104AK  22122.58334491  .00037891  00000-0  23886-2 0  9993,2 49441  53.2195  45.8567 0002225  41.2095 239.1946 15.08800997 27578,6918.0,95.44,541.404,538.325,0.0
49441.0,STARLINK-3128,PAYLOAD,2022-05-02 22:00:01,15.08840442,0.0002295,53.2196,44.3611,42.6138,249.4092,-0.00083652,-0.00013577,0.0,0 STARLINK-3128,1 49441U 21104AK  22122.91668981 -.00013577  00000-0 -83652-3 0  9999,2 49441  53.2196  44.3611 0002295  42.6138 249.4092 15.08840442  3561,6917.879,95.438,541.332,538.156,0.0
49441.0,STARLINK-3128,PAYLOAD,2022-05-03 04:00:00,15.08814917,0.0002455,53.2197,43.2402,40.0497,170.6078,0.0027662,0.00043982,0.0,0 STARLINK-3128,1 49441U 21104AK  22123.16667824  .00043982  00000-0  27662-2 0  9991,2 49441  53.2197  43.2402 0002455  40.0497 170.6078 15.08814917 27660,6917.956999999999,95.439,541.52,538.124,0.0
49441.0,STARLINK-3128,PAYLOAD,2022-05-03 14:00:01,15.08829522,0.0002249,53.2197,41.3681,43.7508,271.4019,0.0027554,0.00043825,0.0,0 STARLINK-3128,1 49441U 21104AK  22123.58334491  .00043825  00000-0  27554-2 0  9994,2 49441  53.2197  41.3681 0002249  43.7508 271.4019 15.08829522  3568,6917.9119999999975,95.438,541.3330000000002,538.222,0.0
49441.0,STARLINK-3128,PAYLOAD,2022-05-03 22:00:00,15.08876551,0.0002286,53.2198,39.8725,44.2802,282.4692,-0.0011307,-0.00018257,0.0,0 STARLINK-3128,1 49441U 21104AK  22123.91667824 -.00018257  00000-0 -11307-2 0  9992,2 49441  53.2198  39.8725 0002286  44.2802 282.4692 15.08876551 27776,6917.769,95.435,541.215,538.052,0.0
49441.0,STARLINK-3128,PAYLOAD,2022-05-04 14:00:01,15.08845243,0.0002091,53.2193,36.8792,43.0608,306.9561,0.0016405,0.00025921,0.0,0 STARLINK-3128,1 49441U 21104AK  22124.58334491  .00025921  00000-0  16405-2 0  9995,2 49441  53.2193  36.8792 0002091  43.0608 306.9561 15.08845243  3592,6917.864000000001,95.437,541.1759999999998,538.283,0.0
49441.0,STARLINK-3128,PAYLOAD,2022-05-04 20:00:01,15.08871616,0.0002089,53.2195,35.7573,43.9442,224.8382,-0.0021024,-0.00033622,0.0,0 STARLINK-3128,1 49441U 21104AK  22124.83335648 -.00033622  00000-0 -21024-2 0  9990,2 49441  53.2195  35.7573 0002089  43.9442 224.8382 15.08871616 27915,6917.784000000002,95.436,541.094,538.2040000000002,0.0
49441.0,STARLINK-3128,PAYLOAD,2022-05-04 22:00:01,15.08861877,0.0002134,53.2194,35.3837,42.1049,319.5862,-0.0015511,-0.00024905,0.0,0 STARLINK-3128,1 49441U 21104AK  22124.91668981 -.00024905  00000-0 -15511-2 0  9996,2 49441  53.2194  35.3837 0002134  42.1049 319.5862 15.08861877  3612,6917.814,95.436,541.155,538.202,0.0
49441.0,STARLINK-3128,PAYLOAD,2022-05-05 14:00:01,15.08820431,0.0002012,53.2188,32.3902,42.1633,342.6832,0.0012425,0.00019531,0.0,0 STARLINK-3128,1 49441U 21104AK  22125.58334491  .00019531  00000-0  12425-2 0  9994,2 49441  53.2188  32.3902 0002012  42.1633 342.6832 15.08820431  3579,6917.94,95.439,541.197,538.413,0.0
49441.0,STARLINK-3128,PAYLOAD,2022-05-05 22:00:00,15.08836806,0.0002179,53.2189,30.8952,44.0485,352.3777,-0.001672,-0.00026798,0.0,0 STARLINK-3128,1 49441U 21104AK  22125.91667824 -.00026798  00000-0 -16720-2 0  9997,2 49441  53.2189  30.8952 0002179  44.0485 352.3777 15.08836806 28080,6917.89,95.438,541.263,538.248,0.0
49441.0,STARLINK-3128,PAYLOAD,2022-05-06 14:00:01,15.08833629,0.000221,53.2176,27.9022,45.2546,14.3266,0.00035347,5.341e-05,0.0,0 STARLINK-3128,1 49441U 21104AK  22126.58334491  .00005341  00000-0  35347-3 0  9998,2 49441  53.2176  27.9022 0002210  45.2546  14.3266 15.08833629 28187,6917.9,95.438,541.294,538.236,0.0
49441.0,STARLINK-3128,PAYLOAD,2022-05-07 14:00:01,15.08816865,0.0002099,53.2181,23.4122,46.1632,48.2341,0.0028524,0.00045372,0.0,0 STARLINK-3128,1 49441U 21104AK  22127.58334491  .00045372  00000-0  28524-2 0  9995,2 49441  53.2181  23.4122 0002099  46.1632  48.2341 15.08816865  3609,6917.951,95.439,541.268,538.364,0.0
49441.0,STARLINK-3128,PAYLOAD,2022-05-07 22:00:00,15.08856641,0.0002259,53.2182,21.9172,44.847,61.1324,-0.0013573,-0.00021835,0.0,0 STARLINK-3128,1 49441U 21104AK  22127.91667824 -.00021835  00000-0 -13573-2 0  9999,2 49441  53.2182  21.9172 0002259  44.8470  61.1324 15.08856641 28384,6917.83,95.437,541.257,538.132,0.0
49441.0,STARLINK-3128,PAYLOAD,2022-05-08 14:00:01,15.08811338,0.0002105,53.2184,18.923,44.8074,84.3745,0.0031828,0.00050692,0.0,0 STARLINK-3128,1 49441U 21104AK  22128.58334491  .00050692  00000-0  31828-2 0  9998,2 49441  53.2184  18.9230 0002105  44.8074  84.3745 15.08811338  3614,6917.968000000003,95.439,541.289,538.377,0.0
49441.0,STARLINK-3128,PAYLOAD,2022-05-08 22:00:00,15.08856551,0.0002249,53.2186,17.4282,43.1367,97.6251,-0.0038079,-0.00060413,0.0,0 STARLINK-3128,1 49441U 21104AK  22128.91667824 -.00060413  00000-0 -38079-2 0  9993,2 49441  53.2186  17.4282 0002249  43.1367  97.6251 15.08856551 28536,6917.83,95.437,541.251,538.139,0.0
49441.0,STARLINK-3128,PAYLOAD,2022-05-09 06:00:00,15.08830746,0.0002288,53.2186,15.9319,39.7923,112.5619,0.00041058,6.251e-05,0.0,0 STARLINK-3128,1 49441U 21104AK  22129.25001157  .00006251  00000-0  41058-3 0  9992,2 49441  53.2186  15.9319 0002288  39.7923 112.5619 15.08830746 28580,6917.909000000002,95.438,541.356,538.191,0.0
49441.0,STARLINK-3128,PAYLOAD,2022-05-09 14:00:01,15.08819192,0.0002121,53.219,14.434,44.5405,119.4688,0.0031641,0.00050401,0.0,0 STARLINK-3128,1 49441U 21104AK  22129.58335648  .00050401  00000-0  31641-2 0  9995,2 49441  53.2190  14.4340 0002121  44.5405 119.4688 15.08819192  3563,6917.944,95.439,541.276,538.342,0.0
49441.0,STARLINK-3128,PAYLOAD,2022-05-09 22:00:00,15.08865522,0.0002276,53.2191,12.9393,42.7495,132.787,-0.0026314,-0.00041954,0.0,0 STARLINK-3128,1 49441U 21104AK  22129.91667824 -.00041954  00000-0 -26314-2 0  9992,2 49441  53.2191  12.9393 0002276  42.7495 132.7870 15.08865522  3564,6917.802,95.436,541.242,538.0930000000002,0.0
49441.0,STARLINK-3128,PAYLOAD,2022-05-10 08:00:01,15.08851459,0.0002181,53.2193,11.0683,40.4988,239.5414,-0.0017525,-0.00028081,0.0,0 STARLINK-3128,1 49441U 21104AK  22130.33334491 -.00028081  00000-0 -17525-2 0  9991,2 49441  53.2193  11.0683 0002181  40.4988 239.5414 15.08851459 28746,6917.845,95.437,541.219,538.202,0.0
49441.0,STARLINK-3128,PAYLOAD,2022-05-10 14:00:01,15.08835347,0.0002043,53.2194,9.9451,43.7492,154.99200000000005,4.4913e-05,4.27e-06,0.0,0 STARLINK-3128,1 49441U 21104AK  22130.58334491  .00000427  00000-0  44913-4 0  9993,2 49441  53.2194   9.9451 0002043  43.7492 154.9920 15.08835347  3607,6917.895,95.438,541.173,538.346,0.0
49441.0,STARLINK-3128,PAYLOAD,2022-05-10 18:00:00,15.08865995,0.0002092,53.2188,9.1972,43.0109,341.5159,-0.0057806,-0.00091191,0.0,0 STARLINK-3128,1 49441U 21104AK  22130.75001157 -.00091191  00000-0 -57806-2 0  9995,2 49441  53.2188   9.1972 0002092  43.0109 341.5159 15.08865995  3590,6917.801,95.436,541.113,538.219,0.0
49441.0,STARLINK-3128,PAYLOAD,2022-05-11 22:00:00,15.08857637,0.0002167,53.2196,3.962,41.3252,203.7576,-0.0016108,-0.00025846,0.0,0 STARLINK-3128,1 49441U 21104AK  22131.91667824 -.00025846  00000-0 -16108-2 0  9997,2 49441  53.2196   3.9620 0002167  41.3252 203.7576 15.08857637 28980,6917.826,95.436,541.191,538.192,0.0
